# From MPEC 2022-K19
P/2016 R4 (Gibbs),e,10.8751,168.2613,174.1500,5.333546,0.0800166,0.47589560,206.8163,08/22.0/2023,2000,g 12.5,4.0
# From MPC105543
P/2016 S1 (PANSTARRS),e,94.7379,227.6724,273.2321,8.273744,0.0414144,0.71075454,97.2593,08/22.0/2023,2000,g 12.0,4.0
# From MPC106345
P/2016 WM48 (Lemmon),e,117.6152,59.9458,36.1611,8.171392,0.0421949,0.78353144,100.0020,08/22.0/2023,2000,g 15.0,4.0
# From MPEC 2021-P47
C/2016 X1 (Lemmon),e,26.4632,256.3223,224.4970,1515,0.0000167,0.99501280,0.0000,04/28.2521/2019,2000,g  6.0,4.0
# From MPEC 2022-OB6
C/2017 B3 (LINEAR),e,54.1652,2.1805,284.8354,27129,0.0000002,0.99985507,0.0000,01/31.8257/2019,2000,g  6.0,4.0
# From MPC103847
P/2017 B4 (PANSTARRS),e,20.0584,121.4578,11.0197,4.410520,0.1064068,0.36495152,359.9130,01/05.0/2017,2000,g 14.5,4.0
# From MPEC 2022-OB6
P/2017 D1 (Fuls),e,20.7705,82.1954,7.9604,4.826724,0.0929448,0.43730112,243.0654,08/22.0/2023,2000,g 14.0,4.0
# From MPEC 2022-OB6
P/2017 D4 (PANSTARRS),e,10.5566,264.9532,212.0927,7.545827,0.0475493,0.62945852,120.8159,08/22.0/2023,2000,g 13.0,4.0
# From MPC104794
P/2017 G1 (PANSTARRS),e,4.7871,249.6971,224.3090,7.272884,0.0502509,0.65422867,134.2518,08/22.0/2023,2000,g 13.5,4.0
# From MPC108595
P/2017 G2 (PANSTARRS),e,47.9651,79.8694,105.3444,8.046792,0.0431787,0.64768683,97.8052,08/22.0/2023,2000,g 13.0,4.0
# From MPEC 2023-Q33
C/2017 K2 (PANSTARRS),h,12/19.6860/2022,87.5642,88.2351,236.2059,1.000691,1.797031,2000,1.5,4.0
# From MPEC 2021-N06
P/2017 K3 (Gasparovic),e,4.2736,354.3043,253.3727,5.585046,0.0746731,0.57892139,170.1583,08/22.0/2023,2000,g 14.5,4.0
# From MPEC 2021-P47
C/2017 K5 (PANSTARRS),h,03/27.1868/2020,82.2659,102.4044,172.0623,1.004842,7.684227,2000,5.0,4.0
# From MPEC 2022-OB6
C/2017 M4 (ATLAS),h,01/17.9554/2019,105.6308,65.9986,167.5721,1.001038,3.248659,2000,6.0,4.0
# From MPC118841
C/2017 M5 (TOTAS),h,06/03.5065/2018,15.8586,216.2875,92.8905,1.004485,6.009520,2000,6.5,4.0
# From MPC114599
P/2017 P1 (PANSTARRS),e,7.6884,221.3530,122.8417,7.917421,0.0442414,0.31047909,83.4340,08/22.0/2023,2000,g 10.0,4.0
# From MPC114599
C/2017 S3 (PANSTARRS),h,08/17.0128/2018,99.1518,171.2032,255.7510,1.000096,0.203668,2000,12.9,4.0
# From MPEC 2022-OB6
P/2017 S8 (PANSTARRS),e,29.8482,191.5191,254.8721,2.778610,0.2127956,0.39091750,72.5095,08/22.0/2023,2000,g 16.0,4.0
# From MPEC 2022-YN2
C/2017 T2 (PANSTARRS),e,57.2802,64.4333,92.8797,1500,0.0000170,0.99892537,0.0000,05/04.9293/2020,2000,g  5.0,4.0
# From MPC114600
C/2017 T3 (ATLAS),e,88.2935,230.2606,246.7762,1321,0.0000205,0.99937789,0.0000,07/19.6621/2018,2000,g 10.0,4.0
# From MPC115882
P/2017 TW13 (Lemmon),e,44.8527,322.2197,119.9270,7.134834,0.0517164,0.71054290,97.5688,08/22.0/2023,2000,g 15.0,2.0
# From MPEC 2022-K19
P/2017 U3 (PANSTARRS),e,15.9178,165.0991,296.2127,4.923252,0.0902248,0.10000007,143.7128,08/22.0/2023,2000,g 11.0,4.0
# From MPEC 2023-CD7
C/2017 U4 (PANSTARRS),e,158.1998,245.9007,158.9884,6324,0.0000020,0.99877796,0.0000,09/21.2306/2018,2000,g  7.0,4.0
# From MPEC 2023-A50
C/2017 U7 (PANSTARRS),h,09/15.6800/2019,142.6226,276.2825,326.4536,1.002160,6.428459,2000,8.3,2.0
# From MPC114601
P/2017 W3 (Gibbs),e,18.1707,210.1797,327.7938,7.827681,0.0450043,0.50631737,90.1357,08/22.0/2023,2000,g 10.5,4.0
# From MPEC 2021-R75
C/2017 X1 (PANSTARRS),e,31.3474,251.1696,283.0720,30.95682,0.0057223,0.84947797,10.8447,08/22.0/2023,2000,g 10.0,4.0
# From MPEC 2022-QD9
C/2017 Y2 (PANSTARRS),h,11/05.1379/2020,128.4437,66.0231,147.9294,1.001561,4.631480,2000,15.0,4.0
# From MPC111770
P/2017 Y3 (Leonard),e,27.5756,153.8821,67.5381,9.813548,0.0320601,0.86933522,64.8033,08/22.0/2023,2000,g 16.5,4.0
# From MPEC 2021-P47
C/2018 A3 (ATLAS),e,139.5448,194.2984,86.3646,353.6240,0.0001482,0.99072148,0.0000,01/10.2431/2019,2000,g  8.5,4.0
# From MPEC 2023-J29
C/2018 A4 (PANSTARRS),e,3.1517,97.5644,355.9571,12.18736,0.0231654,0.80411519,44.4752,08/22.0/2023,2000,g 14.0,4.0
# From MPC109147
P/2018 A5 (PANSTARRS),e,23.6199,87.7867,359.4898,5.627132,0.0738369,0.52379650,159.2517,08/22.0/2023,2000,g 15.0,4.0
# From MPEC 2022-ST7
C/2018 A6 (Gibbs),e,77.0754,340.3915,264.3344,15.02962,0.0169154,0.79916553,25.4231,08/22.0/2023,2000,g  9.0,4.0
# From MPC114601
P/2018 C1 (Lemmon-Read),e,5.1090,270.3088,235.7013,5.651851,0.0733530,0.53208166,147.1380,08/22.0/2023,2000,g 13.5,4.0
# From MPC114601
C/2018 C2 (Lemmon),e,34.4629,91.3036,133.9404,7383,0.0000016,0.99973458,0.0000,05/30.8364/2018,2000,g 13.0,4.0
# From MPEC 2022-M88
C/2018 DO4 (Lemmon),e,160.4440,251.4306,176.3235,25.33621,0.0077284,0.90465632,11.3329,08/22.0/2023,2000,g 11.0,4.0
# From MPC114602
C/2018 E1 (ATLAS),e,72.4899,146.7978,299.2747,53.89179,0.0024913,0.95008968,4.8617,08/22.0/2023,2000,g 10.5,4.0
# From MPC114602
C/2018 EN4 (NEOWISE),e,81.9803,136.1320,35.0038,17.88848,0.0130270,0.91833998,24.8465,08/22.0/2023,2000,g 15.0,4.0
# From MPEC 2023-CD7
C/2018 EF9 (Lemmon),e,84.6494,172.5763,72.6403,435.9456,0.0001083,0.99641366,0.0000,05/20.5522/2018,2000,g 18.0,2.0
# From MPEC 2021-R75
C/2018 F1 (Grauer),e,46.0897,177.2797,71.5638,232.7189,0.0002776,0.98712068,0.0000,12/11.3250/2018,2000,g 11.5,4.0
# From MPEC 2023-A50
C/2018 F4 (PANSTARRS),e,78.0830,26.5152,263.2123,3816,0.0000042,0.99909719,0.0000,12/02.5801/2019,2000,g 11.0,6.0
# From MPEC 2021-Y10
C/2018 F4-A,e,78.0832,26.5154,263.2091,3604,0.0000046,0.99904423,0.0000,12/02.5682/2019,2000,g 11.0,6.0
# From MPEC 2023-D41
C/2018 F4-B,e,78.0841,26.5149,263.1949,3973,0.0000039,0.99913302,0.0000,12/02.5050/2019,2000,g 11.0,6.0
# From MPC114602
P/2018 H2 (PANSTARRS),e,7.4490,67.6155,120.0802,4.388337,0.1072147,0.54178300,220.0124,08/22.0/2023,2000,g 16.6,2.0
# From MPEC 2021-R75
C/2018 KJ3 (Lemmon),e,136.6561,91.6693,217.6414,901.1988,0.0000364,0.99597813,0.0000,09/09.9297/2019,2000,g 12.2,2.0
# From MPC114602
P/2018 L1 (PANSTARRS),e,10.5767,268.6016,18.0290,3.654679,0.1410685,0.48152631,246.1790,08/22.0/2023,2000,g 15.0,4.0
# From MPEC 2021-P47
C/2018 L2 (ATLAS),e,67.2253,242.9915,56.3402,252.7989,0.0002452,0.99320543,0.0000,12/01.7260/2018,2000,g 10.0,4.0
# From MPC114603
P/2018 L4 (PANSTARRS),e,26.6104,145.1918,140.6010,4.946383,0.0895927,0.65869745,165.6617,08/22.0/2023,2000,g 17.5,4.0
# From MPC119996
P/2018 L5 (Leonard),e,2.2092,219.0317,93.9672,3.629106,0.1425623,0.36404009,275.7675,08/22.0/2023,2000,g 14.5,4.0
# From MPC117070
C/2018 M1 (Catalina),e,37.2565,339.4309,14.2688,21.53160,0.0098648,0.93927119,18.4287,08/22.0/2023,2000,g 15.5,4.0
# From MPEC 2022-M21
C/2018 N1 (NEOWISE),e,159.3924,292.5817,354.7465,519.0948,0.0000833,0.99748266,0.0000,08/03.3393/2018,2000,g 15.5,4.0
# From MPEC 2022-YN2
C/2018 N2 (ASASSN),h,11/11.5681/2019,77.5561,25.2020,24.5192,1.001268,3.129451,2000,6.0,4.0
# From MPC114603
C/2018 O1 (ATLAS),e,153.9843,87.8317,162.7179,28.08875,0.0066207,0.94462757,12.0169,08/22.0/2023,2000,g 17.0,4.0
# From MPEC 2023-J29
P/2018 P3 (PANSTARRS),e,8.9148,59.1604,306.0083,3.003739,0.1893263,0.41714276,336.0053,08/22.0/2023,2000,g 14.5,4.0
# From MPC114603
P/2018 P4 (PANSTARRS),e,23.1042,353.0713,8.4874,6.687894,0.0569862,0.45035436,99.5432,08/22.0/2023,2000,g 12.0,4.0
# From MPEC 2021-P47
C/2018 P5 (PANSTARRS),e,7.2463,216.1877,132.0340,12.85074,0.0213950,0.64274994,35.0011,08/22.0/2023,2000,g 11.0,4.0
# From MPC118841
C/2018 R3 (Lemmon),e,69.7027,324.5399,112.7415,1599,0.0000154,0.99919805,0.0000,06/07.9895/2019,2000,g  9.5,4.0
# From MPC114603
C/2018 R5 (Lemmon),e,103.7407,171.1330,178.2521,22.93530,0.0089732,0.84150662,15.1159,08/22.0/2023,2000,g 11.5,4.0
# From MPEC 2022-QC6
C/2018 S2 (TESS),e,64.1370,85.0886,290.8537,14.36452,0.0181037,0.61870514,31.6680,08/22.0/2023,2000,g  7.5,4.0
# From MPEC 2023-N01
C/2018 U1 (Lemmon),h,11/03.0544/2021,108.3215,75.5001,180.4648,1.001407,4.992325,2000,5.0,4.0
# From MPC114604
C/2018 V1 (Machholz-Fujikawa-Iwamoto),h,12/02.8975/2018,144.1216,129.1858,89.2336,1.000380,0.391351,2000,12.0,4.0
# From MPC115884
C/2018 V2 (ATLAS),e,159.1673,357.0940,319.0808,25.10670,0.0078346,0.90089420,13.5595,08/22.0/2023,2000,g 15.0,4.0
# From MPEC 2023-CD7
P/2018 VN2 (Leonard),e,18.2594,226.4421,138.9046,4.061854,0.1203975,0.47864943,228.8674,08/22.0/2023,2000,g 15.0,4.0
# From MPEC 2022-VC5
A/2018 V3,e,164.9536,308.7279,3.6165,128.2783,0.0006784,0.98956082,0.0000,09/09.5369/2019,2000,g 15.7,2.0
# From MPEC 2022-M21
C/2018 V4 (Africano),e,69.0393,78.2548,359.9752,203.7897,0.0003388,0.98431731,0.0000,03/01.6864/2019,2000,g 12.5,4.0
# From MPEC 2021-P47
P/2018 V5 (Trujillo-Sheppard),e,10.5872,171.2835,260.7032,8.964840,0.0367189,0.47579307,65.4533,08/22.0/2023,2000,g 12.5,4.0
# From MPEC 2021-P47
C/2018 W1 (Catalina),e,83.3988,233.6780,251.1914,21.69649,0.0097526,0.93744201,15.2408,08/22.0/2023,2000,g 15.5,2.0
# From MPEC 2021-P47
C/2018 W2 (Africano),h,09/05.2996/2019,116.6182,181.8342,158.1163,1.000687,1.462933,2000,9.5,4.0
# From MPEC 2023-M14
A/2018 W3,e,104.8285,251.6792,313.9587,712.8433,0.0000518,0.99398197,0.0000,04/13.0735/2021,2000,g 10.7,2.0
# From MPC119996
C/2018 X2 (Fitzsimmons),e,23.0768,340.7824,161.9375,139.0816,0.0006009,0.98477048,0.0000,07/08.4343/2019,2000,g 12.0,4.0
# From MPC114604
C/2018 X3 (PANSTARRS),e,43.4229,78.8069,359.7684,12.38085,0.0226245,0.78267093,38.3373,08/22.0/2023,2000,g 14.5,4.0
# From MPEC 2023-HD1
C/2018 Y1 (Iwamoto),e,160.4217,147.4600,357.8897,128.6700,0.0006753,0.99001665,0.0000,02/05.3987/2019,2000,g  9.0,4.0
# From MPC114605
P/2018 Y2 (Africano),e,11.6862,297.1832,162.2527,7.453056,0.0484398,0.47949870,81.9941,08/22.0/2023,2000,g 11.5,4.0
# From MPC114605
P/2019 A1 (PANSTARRS),e,13.7559,312.2469,150.7161,5.115312,0.0851914,0.56945095,151.2497,08/22.0/2023,2000,g 16.0,4.0
# From MPEC 2021-P47
P/2019 A2 (ATLAS),e,14.8626,139.4323,323.8489,5.712759,0.0721830,0.38246219,125.2335,08/22.0/2023,2000,g 10.5,4.0
# From MPEC 2022-M21
P/2019 A3 (PANSTARRS),e,15.3751,31.2940,325.6938,3.143811,0.1768151,0.26608286,325.7663,08/22.0/2023,2000,g 16.0,4.0
# From MPEC 2022-L66
